{
    "links": {
        "self": "http://www.neowsapp.com/rest/v1/neo/3986736?api_key=iIulBulltgU6a56xZRHN4H3l9WmuAYTsLGpBGhQ2"
    },
    "id": "3986736",
    "neo_reference_id": "3986736",
    "name": "(2020 BT)",
    "designation": "2020 BT",
    "nasa_jpl_url": "http://ssd.jpl.nasa.gov/sbdb.cgi?sstr=3986736",
    "absolute_magnitude_h": 24.408,
    "estimated_diameter": {
        "kilometers": {
            "estimated_diameter_min": 0.0349104122,
            "estimated_diameter_max": 0.0780620548
        },
        "meters": {
            "estimated_diameter_min": 34.910412191,
            "estimated_diameter_max": 78.0620547817
        },
        "miles": {
            "estimated_diameter_min": 0.0216923177,
            "estimated_diameter_max": 0.048505497
        },
        "feet": {
            "estimated_diameter_min": 114.5354767329,
            "estimated_diameter_max": 256.10911181
        }
    },
    "is_potentially_hazardous_asteroid": false,
    "close_approach_data": [
        {
            "close_approach_date": "2020-01-19",
            "close_approach_date_full": "2020-Jan-19 17:10",
            "epoch_date_close_approach": 1579453800000,
            "relative_velocity": {
                "kilometers_per_second": "8.7792542837",
                "kilometers_per_hour": "31605.3154213637",
                "miles_per_hour": "19638.3139072357"
            },
            "miss_distance": {
                "astronomical": "0.0877593044",
                "lunar": "34.1383694116",
                "kilometers": "13128605.010921628",
                "miles": "8157736.8745013464"
            },
            "orbiting_body": "Earth"
        }
    ],
    "orbital_data": {
        "orbit_id": "4",
        "orbit_determination_date": "2020-02-20 04:52:35",
        "first_observation_date": "2020-01-18",
        "last_observation_date": "2020-02-19",
        "data_arc_in_days": 32,
        "observations_used": 24,
        "orbit_uncertainty": "8",
        "minimum_orbit_intersection": ".0615856",
        "jupiter_tisserand_invariant": "3.336",
        "epoch_osculation": "2458870.5",
        "eccentricity": ".562265832570041",
        "semi_major_axis": "2.330705970641104",
        "inclination": "4.478362852922588",
        "ascending_node_longitude": "139.6313795265512",
        "orbital_period": "1299.659722294167",
        "perihelion_distance": "1.020229637582618",
        "perihelion_argument": "315.3927520659097",
        "aphelion_distance": "3.64118230369959",
        "perihelion_time": "2458850.702997023009",
        "mean_anomaly": "5.483682343510867",
        "mean_motion": ".2769955810929694",
        "equinox": "J2000",
        "orbit_class": {
            "orbit_class_type": "AMO",
            "orbit_class_description": "Near-Earth asteroid orbits similar to that of 1221 Amor",
            "orbit_class_range": "1.017 AU < q (perihelion) < 1.3 AU"
        }
    },
    "is_sentry_object": false
}